[{"OBJECT_NAME":"STARLINK-35076","OBJECT_ID":"2025-194Z","EPOCH":"2026-03-09T13:08:02.056992","MEAN_MOTION":15.05648502,"ECCENTRICITY":0.00018685,"INCLINATION":97.6024,"RA_OF_ASC_NODE":284.2131,"ARG_OF_PERICENTER":77.2963,"MEAN_ANOMALY":282.8472,"EPHEMERIS_TYPE":0,"CLASSIFICATION_TYPE":"U","NORAD_CAT_ID":65457,"ELEMENT_SET_NO":999,"REV_AT_EPOCH":2962,"BSTAR":0.00020624272,"MEAN_MOTION_DOT":2.916e-5,"MEAN_MOTION_DDOT":0},{"OBJECT_NAME":"CZ-6A DEB","OBJECT_ID":"2022-151MM","EPOCH":"2026-03-09T16:36:35.308512","MEAN_MOTION":15.08432741,"ECCENTRICITY":0.0037582,"INCLINATION":98.6255,"RA_OF_ASC_NODE":147.7512,"ARG_OF_PERICENTER":182.2642,"MEAN_ANOMALY":177.8419,"EPHEMERIS_TYPE":0,"CLASSIFICATION_TYPE":"U","NORAD_CAT_ID":54585,"ELEMENT_SET_NO":999,"REV_AT_EPOCH":10505,"BSTAR":0.0062350664,"MEAN_MOTION_DOT":0.00099853,"MEAN_MOTION_DDOT":0}]
